[{"OBJECT_NAME":"STARLINK-31996","OBJECT_ID":"2024-117K","EPOCH":"2026-03-09T07:45:46.003968","MEAN_MOTION":15.30178795,"ECCENTRICITY":0.00012672,"INCLINATION":53.1613,"RA_OF_ASC_NODE":38.5903,"ARG_OF_PERICENTER":87.5677,"MEAN_ANOMALY":272.5469,"EPHEMERIS_TYPE":0,"CLASSIFICATION_TYPE":"U","NORAD_CAT_ID":60100,"ELEMENT_SET_NO":999,"REV_AT_EPOCH":9683,"BSTAR":3.5447249e-5,"MEAN_MOTION_DOT":6.9e-6,"MEAN_MOTION_DDOT":0},{"OBJECT_NAME":"NUSHSAT1","OBJECT_ID":"2025-052B","EPOCH":"2026-03-09T15:31:41.225952","MEAN_MOTION":15.31903202,"ECCENTRICITY":0.0005501,"INCLINATION":97.4095,"RA_OF_ASC_NODE":325.7239,"ARG_OF_PERICENTER":84.7512,"MEAN_ANOMALY":275.4357,"EPHEMERIS_TYPE":0,"CLASSIFICATION_TYPE":"U","NORAD_CAT_ID":63211,"ELEMENT_SET_NO":999,"REV_AT_EPOCH":5488,"BSTAR":0.00074857,"MEAN_MOTION_DOT":0.00023034,"MEAN_MOTION_DDOT":0}]
